QIANFAN-25              
1 61558U 24185G   25250.20756050  .00000557  00000+0  33268-3 0  9995
2 61558  88.9739  89.1256 0006532 233.3100 126.7483 14.05781311 55945
QIANFAN-26              
1 61559U 24185H   25250.22958432  .00000271  00000+0  25841-3 0  9997
2 61559  88.9749  90.1786 0004287 320.6865  39.3989 13.77735740 55381
QIANFAN-27              
1 61560U 24185J   25250.20686901  .00000594  00000+0  23746-3 0  9996
2 61560  88.9744  88.2729 0006011 238.9957 121.0648 14.27155474 56392
QIANFAN-28              
1 61561U 24185K   25250.23237838  .00001028  00000+0  41093-3 0  9999
2 61561  88.9760  88.2659 0005115 239.0815 120.9877 14.27740474 56406
QIANFAN-29              
1 61562U 24185L   25250.23359401  .00000204  00000+0  29804-3 0  9992
2 61562  88.9728  91.2943 0009486 341.2589  18.8211 13.50962925 54766
QIANFAN-30              
1 61563U 24185M   25250.20953426  .00000202  00000+0  30005-3 0  9990
2 61563  88.9747  90.7851 0006496 328.0008  32.0747 13.49940782 55046
QIANFAN-31              
1 61564U 24185N   25250.22858203  .00000197  00000+0  25629-3 0  9999
2 61564  88.9731  90.7380 0006063 326.4827  33.5944 13.57913286 55063
QIANFAN-32              
1 61565U 24185P   25250.23151684  .00000195  00000+0  28486-3 0  9992
2 61565  88.9790  90.8879 0009094 352.5872   7.5143 13.50693419 55013
